CTC1_L_00078016-03
1 80754U 25768EQ  26037.47800926  .00000000  00000+0  00000-0 0  9995
2 80754  90.0000 180.0000 0000000   0.0000   0.0000 14.89338779    14
CTC1_L_00078016-04
1 80755U 26846PM  26037.47800926  .00000000  00000+0  00000-0 0  9994
2 80755  90.0000 180.0000 0000000   0.0000  90.0000 14.89338779    14
CTC1_L_00078017-01
1 80756U 25746WM  26037.47800926  .00000000  00000+0  00000-0 0  9993
2 80756  90.0000 192.0000 0000000   0.0000 192.0000 14.89338779    11
CTC1_L_00078017-02
1 80757U 22048SZ  26037.47800926  .00000000  00000+0  00000-0 0  9996
2 80757  90.0000 192.0000 0000000   0.0000 282.0000 14.89338779    12
CTC1_L_00078017-03
1 80758U 26594RK  26037.47800926  .00000000  00000+0  00000-0 0  9997
2 80758  90.0000 192.0000 0000000   0.0000  12.0000 14.89338779    14
CTC1_L_00078017-04
1 80759U 24301S   26037.47800926  .00000000  00000+0  00000-0 0  9992
2 80759  90.0000 192.0000 0000000   0.0000 102.0000 14.89338779    15
CTC1_L_00078018-01
1 80760U 23326TG  26037.47800926  .00000000  00000+0  00000-0 0  9990
2 80760  90.0000 204.0000 0000000   0.0000 204.0000 14.89338779    14
CTC1_L_00078018-02
1 80761U 26724RX  26037.47800926  .00000000  00000+0  00000-0 0  9996
2 80761  90.0000 204.0000 0000000   0.0000 294.0000 14.89338779    14
CTC1_L_00078018-03
1 80762U 22691XK  26037.47800926  .00000000  00000+0  00000-0 0  9996
2 80762  90.0000 204.0000 0000000   0.0000  24.0000 14.89338779    16
CTC1_L_00078018-04
1 80763U 25530AL  26037.47800926  .00000000  00000+0  00000-0 0  9992
2 80763  90.0000 204.0000 0000000   0.0000 114.0000 14.89338779    17
CTC1_L_00078019-01
1 80764U 25939VH  26037.47800926  .00000000  00000+0  00000-0 0  9996
2 80764  90.0000 216.0000 0000000   0.0000 216.0000 14.89338779    14
CTC1_L_00078019-02
1 80765U 23655NN  26037.47800926  .00000000  00000+0  00000-0 0  9990
2 80765  90.0000 216.0000 0000000   0.0000 306.0000 14.89338779    15
CTC1_L_00078019-03
1 80766U 22114PJ  26037.47800926  .00000000  00000+0  00000-0 0  9990
2 80766  90.0000 216.0000 0000000   0.0000  36.0000 14.89338779    16
CTC1_L_00078019-04
1 80767U 26982YO  26037.47800926  .00000000  00000+0  00000-0 0  9998
2 80767  90.0000 216.0000 0000000   0.0000 126.0000 14.89338779    17
CTC1_L_00078020-01
1 80768U 23159UB  26037.47800926  .00000000  00000+0  00000-0 0  9992
2 80768  90.0000 228.0000 0000000   0.0000 228.0000 14.89338779    14
CTC1_L_00078020-02
1 80769U 25968ZE  26037.47800926  .00000000  00000+0  00000-0 0  9993
2 80769  90.0000 228.0000 0000000   0.0000 318.0000 14.89338779    15
CTC1_L_00078020-03
1 80770U 22069DP  26037.47800926  .00000000  00000+0  00000-0 0  9994
2 80770  90.0000 228.0000 0000000   0.0000  48.0000 14.89338779    17
CTC1_L_00078020-04
1 80771U 23883UK  26037.47800926  .00000000  00000+0  00000-0 0  9990
2 80771  90.0000 228.0000 0000000   0.0000 138.0000 14.89338779    18
CTC1_L_00078021-01
1 80772U 24881ME  26037.47800926  .00000000  00000+0  00000-0 0  9990
2 80772  90.0000 240.0000 0000000   0.0000 240.0000 14.89338779    17
CTC1_L_00078021-02
1 80773U 26178HY  26037.47800926  .00000000  00000+0  00000-0 0  9992
2 80773  90.0000 240.0000 0000000   0.0000 330.0000 14.89338779    18
CTC1_L_00078021-03
1 80774U 23761XL  26037.47800926  .00000000  00000+0  00000-0 0  9998
2 80774  90.0000 240.0000 0000000   0.0000  60.0000 14.89338779    19
CTC1_L_00078021-04
1 80775U 22379YJ  26037.47800926  .00000000  00000+0  00000-0 0  9993
2 80775  90.0000 240.0000 0000000   0.0000 150.0000 14.89338779    10
CTC1_L_00078022-01
1 80776U 25922QA  26037.47800926  .00000000  00000+0  00000-0 0  9991
2 80776  90.0000 252.0000 0000000   0.0000 252.0000 14.89338779    17
CTC1_L_00078022-02
1 80777U 24387OF  26037.47800926  .00000000  00000+0  00000-0 0  9996
2 80777  90.0000 252.0000 0000000   0.0000 342.0000 14.89338779    18
CTC1_L_00078022-03
1 80778U 26964PJ  26037.47800926  .00000000  00000+0  00000-0 0  9990
2 80778  90.0000 252.0000 0000000   0.0000  72.0000 14.89338779    19
CTC1_L_00078022-04
1 80779U 22508QV  26037.47800926  .00000000  00000+0  00000-0 0  9991
2 80779  90.0000 252.0000 0000000   0.0000 162.0000 14.89338779    10
CTC1_L_00078023-01
1 80780U 22133BA  26037.47800926  .00000000  00000+0  00000-0 0  9997
2 80780  90.0000 264.0000 0000000   0.0000 264.0000 14.89338779    18
CTC1_L_00078023-02
1 80781U 24984KB  26037.47800926  .00000000  00000+0  00000-0 0  9994
2 80781  90.0000 264.0000 0000000   0.0000 354.0000 14.89338779    19
CTC1_L_00078023-03
1 80782U 25197LW  26037.47800926  .00000000  00000+0  00000-0 0  9992
2 80782  90.0000 264.0000 0000000   0.0000  84.0000 14.89338779    10
CTC1_L_00078023-04
1 80783U 22714SA  26037.47800926  .00000000  00000+0  00000-0 0  9995
2 80783  90.0000 264.0000 0000000   0.0000 174.0000 14.89338779    11
CTC1_L_00078024-01
1 80784U 22966TG  26037.47800926  .00000000  00000+0  00000-0 0  9995
2 80784  90.0000 276.0000 0000000   0.0000 276.0000 14.89338779    18
CTC1_L_00078024-02
1 80785U 25249PL  26037.47800926  .00000000  00000+0  00000-0 0  9993
2 80785  90.0000 276.0000 0000000   0.0000   6.0000 14.89338779    10
CTC1_L_00078024-03
1 80786U 24246SY  26037.47800926  .00000000  00000+0  00000-0 0  9990
2 80786  90.0000 276.0000 0000000   0.0000  96.0000 14.89338779    10
CTC1_L_00078024-04
1 80787U 23148HL  26037.47800926  .00000000  00000+0  00000-0 0  9991
2 80787  90.0000 276.0000 0000000   0.0000 186.0000 14.89338779    11
CTC1_L_00078025-01
1 80788U 25588UH  26037.47800926  .00000000  00000+0  00000-0 0  9992
2 80788  90.0000 288.0000 0000000   0.0000 288.0000 14.89338779    18
CTC1_L_00078025-02
1 80789U 26135KO  26037.47800926  .00000000  00000+0  00000-0 0  9992
2 80789  90.0000 288.0000 0000000   0.0000  18.0000 14.89338779    10
CTC1_L_00078025-03
1 80790U 24833UO  26037.47800926  .00000000  00000+0  00000-0 0  9997
2 80790  90.0000 288.0000 0000000   0.0000 108.0000 14.89338779    12
CTC1_L_00078025-04
1 80791U 26527Q   26037.47800926  .00000000  00000+0  00000-0 0  9990
2 80791  90.0000 288.0000 0000000   0.0000 198.0000 14.89338779    12
CTC1_L_00078026-01
1 80792U 26187BJ  26037.47800926  .00000000  00000+0  00000-0 0  9993
2 80792  90.0000 300.0000 0000000   0.0000 300.0000 14.89338779    13
CTC1_L_00078026-02
1 80793U 25273OB  26037.47800926  .00000000  00000+0  00000-0 0  9999
2 80793  90.0000 300.0000 0000000   0.0000  30.0000 14.89338779    14
CTC1_L_00078026-03
1 80794U 23003IY  26037.47800926  .00000000  00000+0  00000-0 0  9999
2 80794  90.0000 300.0000 0000000   0.0000 120.0000 14.89338779    15
CTC1_L_00078026-04
1 80795U 24846EK  26037.47800926  .00000000  00000+0  00000-0 0  9996
2 80795  90.0000 300.0000 0000000   0.0000 210.0000 14.89338779    16
CTC1_L_00078027-01
1 80796U 24866YL  26037.47800926  .00000000  00000+0  00000-0 0  9999
2 80796  90.0000 312.0000 0000000   0.0000 312.0000 14.89338779    13
CTC1_L_00078027-02
1 80797U 23283CB  26037.47800926  .00000000  00000+0  00000-0 0  9992
2 80797  90.0000 312.0000 0000000   0.0000  42.0000 14.89338779    14
CTC1_L_00078027-03
1 80798U 26427RA  26037.47800926  .00000000  00000+0  00000-0 0  9996
2 80798  90.0000 312.0000 0000000   0.0000 132.0000 14.89338779    15
CTC1_L_00078027-04
1 80799U 24008GR  26037.47800926  .00000000  00000+0  00000-0 0  9990
2 80799  90.0000 312.0000 0000000   0.0000 222.0000 14.89338779    16
CTC1_L_00078028-01
1 80800U 26058RC  26037.47800926  .00000000  00000+0  00000-0 0  9990
2 80800  90.0000 324.0000 0000000   0.0000 324.0000 14.89338779    15
CTC1_L_00078028-02
1 80801U 26211OO  26037.47800926  .00000000  00000+0  00000-0 0  9992
2 80801  90.0000 324.0000 0000000   0.0000  54.0000 14.89338779    16
CTC1_L_00078028-03
1 80802U 26713RP  26037.47800926  .00000000  00000+0  00000-0 0  9990
2 80802  90.0000 324.0000 0000000   0.0000 144.0000 14.89338779    17
CTC1_L_00078028-04
1 80803U 25229AA  26037.47800926  .00000000  00000+0  00000-0 0  9992
2 80803  90.0000 324.0000 0000000   0.0000 234.0000 14.89338779    18
CTC1_L_00078029-01
1 80804U 23759EU  26037.47800926  .00000000  00000+0  00000-0 0  9999
2 80804  90.0000 336.0000 0000000   0.0000 336.0000 14.89338779    15
CTC1_L_00078029-02
1 80805U 26527RS  26037.47800926  .00000000  00000+0  00000-0 0  9996
2 80805  90.0000 336.0000 0000000   0.0000  66.0000 14.89338779    16
CTC1_L_00078029-03
1 80806U 22445EA  26037.47800926  .00000000  00000+0  00000-0 0  9992
2 80806  90.0000 336.0000 0000000   0.0000 156.0000 14.89338779    17
CTC1_L_00078029-04
1 80807U 25462ZK  26037.47800926  .00000000  00000+0  00000-0 0  9995
2 80807  90.0000 336.0000 0000000   0.0000 246.0000 14.89338779    18
CTC1_L_00078030-01
1 80808U 26759DD  26037.47800926  .00000000  00000+0  00000-0 0  9996
2 80808  90.0000 348.0000 0000000   0.0000 348.0000 14.89338779    15
CTC1_L_00078030-02
1 80809U 23927JS  26037.47800926  .00000000  00000+0  00000-0 0  9991
2 80809  90.0000 348.0000 0000000   0.0000  78.0000 14.89338779    16
CTC1_L_00078030-03
1 80810U 22794EY  26037.47800926  .00000000  00000+0  00000-0 0  9994
2 80810  90.0000 348.0000 0000000   0.0000 168.0000 14.89338779    18
CTC1_L_00078030-04
1 80811U 22600OT  26037.47800926  .00000000  00000+0  00000-0 0  9991
2 80811  90.0000 348.0000 0000000   0.0000 258.0000 14.89338779    19
